{
  "type": "FeatureCollection",
  "features": [
    {
      "type": "Feature",
      "properties": {
        "norad_id": 56759,
        "name": "NVS-01 (IRNSS-1J)",
        "group": "gnss",
        "lat": -1.764115373656561,
        "lon": 114.80889119625886,
        "alt_km": 35819.21968400619,
        "timestamp": "2025-12-22T16:55:17.705757+00:00",
        "meta_object_name": "NVS-01 (IRNSS-1J)",
        "meta_object_id": "2023-076A",
        "meta_epoch": "2025-12-21T22:22:26.393088",
        "meta_mean_motion": 1.00272923,
        "meta_eccentricity": 0.00087734,
        "meta_inclination": 2.597,
        "meta_ra_of_asc_node": 251.2758,
        "meta_arg_of_pericenter": 16.4862,
        "meta_mean_anomaly": 288.1521,
        "meta_ephemeris_type": 0,
        "meta_classification_type": "U",
        "meta_norad_cat_id": 56759,
        "meta_element_set_no": 999,
        "meta_rev_at_epoch": 933,
        "meta_bstar": 0,
        "meta_mean_motion_dot": -3.11e-06,
        "meta_mean_motion_ddot": 0,
        "tle_line1": "1 56759U 23076A   25355.93224992 -.00000311  00000+0  00000+0 0  9994",
        "tle_line2": "2 56759   2.5970 251.2758 0008773  16.4862 288.1521  1.00272923  9337"
      },
      "geometry": {
        "type": "Point",
        "coordinates": [
          114.80889119625886,
          -1.764115373656561
        ]
      }
    },
    {
      "type": "Feature",
      "properties": {
        "norad_id": 57517,
        "name": "COSMOS 2569 (703K)",
        "group": "gnss",
        "lat": -64.2571561208075,
        "lon": 5.393490652425276,
        "alt_km": 19109.215133462094,
        "timestamp": "2025-12-22T16:55:17.705775+00:00",
        "meta_object_name": "COSMOS 2569 (703K)",
        "meta_object_id": "2023-114A",
        "meta_epoch": "2025-12-20T11:11:48.591168",
        "meta_mean_motion": 2.13103983,
        "meta_eccentricity": 0.00107986,
        "meta_inclination": 65.1981,
        "meta_ra_of_asc_node": 78.6524,
        "meta_arg_of_pericenter": 287.0398,
        "meta_mean_anomaly": 72.8764,
        "meta_ephemeris_type": 0,
        "meta_classification_type": "U",
        "meta_norad_cat_id": 57517,
        "meta_element_set_no": 999,
        "meta_rev_at_epoch": 1845,
        "meta_bstar": 0,
        "meta_mean_motion_dot": -1.8e-07,
        "meta_mean_motion_ddot": 0,
        "tle_line1": "1 57517U 23114A   25354.46653462 -.00000018  00000+0  00000+0 0  9999",
        "tle_line2": "2 57517  65.1981  78.6524 0010798 287.0398  72.8764  2.13103983 18453"
      },
      "geometry": {
        "type": "Point",
        "coordinates": [
          5.393490652425276,
          -64.2571561208075
        ]
      }
    },
    {
      "type": "Feature",
      "properties": {
        "norad_id": 58654,
        "name": "BEIDOU-3 M28 (C50)",
        "group": "gnss",
        "lat": 34.573755691574554,
        "lon": 96.42590409445279,
        "alt_km": 21528.92367912861,
        "timestamp": "2025-12-22T16:55:17.705795+00:00",
        "meta_object_name": "BEIDOU-3 M28 (C50)",
        "meta_object_id": "2023-207A",
        "meta_epoch": "2025-12-22T02:28:45.780096",
        "meta_mean_motion": 1.86229752,
        "meta_eccentricity": 0.00028015,
        "meta_inclination": 55.5924,
        "meta_ra_of_asc_node": 68.2843,
        "meta_arg_of_pericenter": 274.1973,
        "meta_mean_anomaly": 85.8199,
        "meta_ephemeris_type": 0,
        "meta_classification_type": "U",
        "meta_norad_cat_id": 58654,
        "meta_element_set_no": 999,
        "meta_rev_at_epoch": 1354,
        "meta_bstar": 0,
        "meta_mean_motion_dot": -3.2e-07,
        "meta_mean_motion_ddot": 0,
        "tle_line1": "1 58654U 23207A   25356.10330764 -.00000032  00000+0  00000+0 0  9991",
        "tle_line2": "2 58654  55.5924  68.2843 0002801 274.1973  85.8199  1.86229752 13540"
      },
      "geometry": {
        "type": "Point",
        "coordinates": [
          96.42590409445279,
          34.573755691574554
        ]
      }
    },
    {
      "type": "Feature",
      "properties": {
        "norad_id": 58655,
        "name": "BEIDOU-3 M26 (C48)",
        "group": "gnss",
        "lat": 0.7203641568452299,
        "lon": -112.22341078465155,
        "alt_km": 21526.246444393528,
        "timestamp": "2025-12-22T16:55:17.705813+00:00",
        "meta_object_name": "BEIDOU-3 M26 (C48)",
        "meta_object_id": "2023-207B",
        "meta_epoch": "2025-12-21T08:44:02.320800",
        "meta_mean_motion": 1.8623129,
        "meta_eccentricity": 0.0004111,
        "meta_inclination": 55.5938,
        "meta_ra_of_asc_node": 68.2956,
        "meta_arg_of_pericenter": 259.2953,
        "meta_mean_anomaly": 100.7044,
        "meta_ephemeris_type": 0,
        "meta_classification_type": "U",
        "meta_norad_cat_id": 58655,
        "meta_element_set_no": 999,
        "meta_rev_at_epoch": 1351,
        "meta_bstar": 0,
        "meta_mean_motion_dot": -3.7e-07,
        "meta_mean_motion_ddot": 0,
        "tle_line1": "1 58655U 23207B   25355.36391575 -.00000037  00000+0  00000+0 0  9991",
        "tle_line2": "2 58655  55.5938  68.2956 0004111 259.2953 100.7044  1.86231290 13512"
      },
      "geometry": {
        "type": "Point",
        "coordinates": [
          -112.22341078465155,
          0.7203641568452299
        ]
      }
    },
    {
      "type": "Feature",
      "properties": {
        "norad_id": 59598,
        "name": "GSAT0225 (GALILEO 29)",
        "group": "gnss",
        "lat": -54.814458628767255,
        "lon": 23.242816838349377,
        "alt_km": 23227.537241521102,
        "timestamp": "2025-12-22T16:55:17.705830+00:00",
        "meta_object_name": "GSAT0225 (GALILEO 29)",
        "meta_object_id": "2024-079A",
        "meta_epoch": "2025-12-22T06:14:03.688224",
        "meta_mean_motion": 1.70474978,
        "meta_eccentricity": 0.00022203,
        "meta_inclination": 55.0066,
        "meta_ra_of_asc_node": 106.0297,
        "meta_arg_of_pericenter": 187.8094,
        "meta_mean_anomaly": 172.9873,
        "meta_ephemeris_type": 0,
        "meta_classification_type": "U",
        "meta_norad_cat_id": 59598,
        "meta_element_set_no": 999,
        "meta_rev_at_epoch": 1030,
        "meta_bstar": 0,
        "meta_mean_motion_dot": 6e-08,
        "meta_mean_motion_ddot": 0,
        "tle_line1": "1 59598U 24079A   25356.25976491  .00000006  00000+0  00000+0 0  9996",
        "tle_line2": "2 59598  55.0066 106.0297 0002220 187.8094 172.9873  1.70474978 10306"
      },
      "geometry": {
        "type": "Point",
        "coordinates": [
          23.242816838349377,
          -54.814458628767255
        ]
      }
    },
    {
      "type": "Feature",
      "properties": {
        "norad_id": 59600,
        "name": "GSAT0227 (GALILEO 30)",
        "group": "gnss",
        "lat": 14.96234275536232,
        "lon": -84.76138041316284,
        "alt_km": 23214.322636025037,
        "timestamp": "2025-12-22T16:55:17.705848+00:00",
        "meta_object_name": "GSAT0227 (GALILEO 30)",
        "meta_object_id": "2024-079C",
        "meta_epoch": "2025-12-21T06:26:54.422016",
        "meta_mean_motion": 1.70474873,
        "meta_eccentricity": 0.0002853,
        "meta_inclination": 55.0016,
        "meta_ra_of_asc_node": 106.0558,
        "meta_arg_of_pericenter": 117.2583,
        "meta_mean_anomaly": 242.7417,
        "meta_ephemeris_type": 0,
        "meta_classification_type": "U",
        "meta_norad_cat_id": 59600,
        "meta_element_set_no": 999,
        "meta_rev_at_epoch": 1033,
        "meta_bstar": 0,
        "meta_mean_motion_dot": 1e-08,
        "meta_mean_motion_ddot": 0,
        "tle_line1": "1 59600U 24079C   25355.26868544  .00000001  00000+0  00000+0 0  9994",
        "tle_line2": "2 59600  55.0016 106.0558 0002853 117.2583 242.7417  1.70474873 10334"
      },
      "geometry": {
        "type": "Point",
        "coordinates": [
          -84.76138041316284,
          14.96234275536232
        ]
      }
    },
    {
      "type": "Feature",
      "properties": {
        "norad_id": 61182,
        "name": "GSAT0232 (GALILEO 32)",
        "group": "gnss",
        "lat": -3.3290171129311155,
        "lon": -136.14078833604393,
        "alt_km": 23227.76380680432,
        "timestamp": "2025-12-22T16:55:17.705867+00:00",
        "meta_object_name": "GSAT0232 (GALILEO 32)",
        "meta_object_id": "2024-167A",
        "meta_epoch": "2025-12-21T05:44:27.225600",
        "meta_mean_motion": 1.70473624,
        "meta_eccentricity": 0.0001881,
        "meta_inclination": 55.2384,
        "meta_ra_of_asc_node": 226.1977,
        "meta_arg_of_pericenter": 205.7333,
        "meta_mean_anomaly": 330.6739,
        "meta_ephemeris_type": 0,
        "meta_classification_type": "U",
        "meta_norad_cat_id": 61182,
        "meta_element_set_no": 999,
        "meta_rev_at_epoch": 784,
        "meta_bstar": 0,
        "meta_mean_motion_dot": 7.3e-07,
        "meta_mean_motion_ddot": 0,
        "tle_line1": "1 61182U 24167A   25355.23920400  .00000073  00000+0  00000+0 0  9996",
        "tle_line2": "2 61182  55.2384 226.1977 0001881 205.7333 330.6739  1.70473624  7846"
      },
      "geometry": {
        "type": "Point",
        "coordinates": [
          -136.14078833604393,
          -3.3290171129311155
        ]
      }
    }
  ]
}